{"type": "FeatureCollection", "features": [{"type": "Feature", "id": "ISS-101", "properties": {"id": "ISS-101", "roadId": "ANDHERI-SEG-006", "roadName": "Kamalakar Pant Walawalkar Marg", "type": "pothole", "title": "Severe Pothole Cluster", "severity": "critical", "priority": "P1", "confidence": 0.96, "position": {"lng": 72.829795, "lat": 19.121181}, "status": "Unresolved", "observedBy": 3, "lastObserved": "2026-09-26 17:42:00"}, "geometry": {"type": "Point", "coordinates": [72.829795, 19.121181]}}, {"type": "Feature", "id": "ISS-102", "properties": {"id": "ISS-102", "roadId": "ANDHERI-SEG-009", "roadName": "Gulmohar Cross Road No. 4", "type": "crack", "title": "Deep Transverse Cracking", "severity": "critical", "priority": "P1", "confidence": 0.94, "position": {"lng": 72.835876, "lat": 19.111102}, "status": "Unresolved", "observedBy": 4, "lastObserved": "2026-09-26 17:42:00"}, "geometry": {"type": "Point", "coordinates": [72.835876, 19.111102]}}, {"type": "Feature", "id": "ISS-103", "properties": {"id": "ISS-103", "roadId": "ANDHERI-SEG-010", "roadName": "Vidyanidhi Marg", "type": "waterlogging", "title": "Monsoon Waterlogging & Subsidence", "severity": "major", "priority": "P2", "confidence": 0.91, "position": {"lng": 72.831675, "lat": 19.111941}, "status": "Under Review", "observedBy": 5, "lastObserved": "2026-09-26 17:42:00"}, "geometry": {"type": "Point", "coordinates": [72.831675, 19.111941]}}, {"type": "Feature", "id": "ISS-104", "properties": {"id": "ISS-104", "roadId": "ANDHERI-SEG-018", "roadName": "Parulekar Road", "type": "pothole", "title": "Multi-Layer Surface Pothole", "severity": "major", "priority": "P2", "confidence": 0.89, "position": {"lng": 72.827709, "lat": 19.114349}, "status": "Under Review", "observedBy": 6, "lastObserved": "2026-09-26 17:42:00"}, "geometry": {"type": "Point", "coordinates": [72.827709, 19.114349]}}, {"type": "Feature", "id": "ISS-105", "properties": {"id": "ISS-105", "roadId": "ANDHERI-SEG-021", "roadName": "Guru Nanak Road", "type": "infrastructure", "title": "Uncovered Utility Trench", "severity": "critical", "priority": "P1", "confidence": 0.98, "position": {"lng": 72.829973, "lat": 19.11296}, "status": "Unresolved", "observedBy": 3, "lastObserved": "2026-09-26 17:42:00"}, "geometry": {"type": "Point", "coordinates": [72.829973, 19.11296]}}, {"type": "Feature", "id": "ISS-106", "properties": {"id": "ISS-106", "roadId": "ANDHERI-SEG-022", "roadName": "S Dnyaneshwar Marg", "type": "crack", "title": "Alligator Cracking & Fatigue", "severity": "major", "priority": "P2", "confidence": 0.87, "position": {"lng": 72.826198, "lat": 19.112801}, "status": "Under Review", "observedBy": 4, "lastObserved": "2026-09-26 17:42:00"}, "geometry": {"type": "Point", "coordinates": [72.826198, 19.112801]}}, {"type": "Feature", "id": "ISS-107", "properties": {"id": "ISS-107", "roadId": "ANDHERI-SEG-030", "roadName": "Wamanrao Mahadik Marg", "type": "debris", "title": "Construction Debris Spillage", "severity": "moderate", "priority": "P3", "confidence": 0.85, "position": {"lng": 72.824823, "lat": 19.134781}, "status": "Under Review", "observedBy": 5, "lastObserved": "2026-09-26 17:42:00"}, "geometry": {"type": "Point", "coordinates": [72.824823, 19.134781]}}, {"type": "Feature", "id": "ISS-108", "properties": {"id": "ISS-108", "roadId": "ANDHERI-SEG-033", "roadName": "Link Road", "type": "safety_hotspot", "title": "Unmarked Speed Breaker", "severity": "major", "priority": "P2", "confidence": 0.92, "position": {"lng": 72.831608, "lat": 19.130257}, "status": "Under Review", "observedBy": 6, "lastObserved": "2026-09-26 17:42:00"}, "geometry": {"type": "Point", "coordinates": [72.831608, 19.130257]}}, {"type": "Feature", "id": "ISS-109", "properties": {"id": "ISS-109", "roadId": "ANDHERI-SEG-034", "roadName": "Dattaji Salvi Marg", "type": "pothole", "title": "Edge Ravelling & Pothole", "severity": "moderate", "priority": "P3", "confidence": 0.84, "position": {"lng": 72.834452, "lat": 19.131923}, "status": "Under Review", "observedBy": 3, "lastObserved": "2026-09-26 17:42:00"}, "geometry": {"type": "Point", "coordinates": [72.834452, 19.131923]}}, {"type": "Feature", "id": "ISS-110", "properties": {"id": "ISS-110", "roadId": "ANDHERI-SEG-042", "roadName": "Link Road", "type": "infrastructure", "title": "Damaged Storm Drain Grate", "severity": "major", "priority": "P2", "confidence": 0.9, "position": {"lng": 72.831112, "lat": 19.128013}, "status": "Under Review", "observedBy": 4, "lastObserved": "2026-09-26 17:42:00"}, "geometry": {"type": "Point", "coordinates": [72.831112, 19.128013]}}, {"type": "Feature", "id": "ISS-111", "properties": {"id": "ISS-111", "roadId": "ANDHERI-SEG-045", "roadName": "CD Barfiwala Road", "type": "waterlogging", "title": "Localized Gutter Overflow", "severity": "moderate", "priority": "P3", "confidence": 0.86, "position": {"lng": 72.837354, "lat": 19.115947}, "status": "Under Review", "observedBy": 5, "lastObserved": "2026-09-26 17:42:00"}, "geometry": {"type": "Point", "coordinates": [72.837354, 19.115947]}}]}