{"type": "FeatureCollection", "features": [{"type": "Feature", "id": "BUS-MH02-104", "properties": {"id": "BUS-MH02-104", "routeId": "RT-200", "routeName": "Route 202 - Andheri Stn to Versova", "position": {"lng": 72.844682, "lat": 19.117597}, "headingDeg": 22.4, "speedKph": 22, "status": "active"}, "geometry": {"type": "Point", "coordinates": [72.844682, 19.117597]}}, {"type": "Feature", "id": "BUS-MH02-211", "properties": {"id": "BUS-MH02-211", "routeId": "RT-201", "routeName": "Route 332 - Andheri Stn to Kurla", "position": {"lng": 72.829795, "lat": 19.121181}, "headingDeg": 6.7, "speedKph": 26, "status": "active"}, "geometry": {"type": "Point", "coordinates": [72.829795, 19.121181]}}, {"type": "Feature", "id": "BUS-MH02-308", "properties": {"id": "BUS-MH02-308", "routeId": "RT-202", "routeName": "Route 415 - Agarkar Chowk to SEEPZ", "position": {"lng": 72.836961, "lat": 19.109031}, "headingDeg": 5.1, "speedKph": 30, "status": "active"}, "geometry": {"type": "Point", "coordinates": [72.836961, 19.109031]}}, {"type": "Feature", "id": "BUS-MH02-452", "properties": {"id": "BUS-MH02-452", "routeId": "RT-203", "routeName": "Route 254 - Andheri West to Juhu Beach", "position": {"lng": 72.83295, "lat": 19.110049}, "headingDeg": 284.6, "speedKph": 34, "status": "active"}, "geometry": {"type": "Point", "coordinates": [72.83295, 19.110049]}}, {"type": "Feature", "id": "BUS-MH02-519", "properties": {"id": "BUS-MH02-519", "routeId": "RT-204", "routeName": "Route 290 - D.N. Nagar to JVLR", "position": {"lng": 72.829973, "lat": 19.11296}, "headingDeg": 179.9, "speedKph": 38, "status": "active"}, "geometry": {"type": "Point", "coordinates": [72.829973, 19.11296]}}, {"type": "Feature", "id": "BUS-MH02-627", "properties": {"id": "BUS-MH02-627", "routeId": "RT-205", "routeName": "Route 359 - Versova Link to Chakala", "position": {"lng": 72.841131, "lat": 19.113881}, "headingDeg": 79.6, "speedKph": 24, "status": "active"}, "geometry": {"type": "Point", "coordinates": [72.841131, 19.113881]}}, {"type": "Feature", "id": "BUS-MH02-744", "properties": {"id": "BUS-MH02-744", "routeId": "RT-206", "routeName": "Route 422 - Marol Naka to Andheri East", "position": {"lng": 72.825924, "lat": 19.134234}, "headingDeg": 283.9, "speedKph": 28, "status": "active"}, "geometry": {"type": "Point", "coordinates": [72.825924, 19.134234]}}, {"type": "Feature", "id": "BUS-MH02-881", "properties": {"id": "BUS-MH02-881", "routeId": "RT-207", "routeName": "Route 181 - S.V. Road Express", "position": {"lng": 72.827639, "lat": 19.110416}, "headingDeg": 26.4, "speedKph": 32, "status": "active"}, "geometry": {"type": "Point", "coordinates": [72.827639, 19.110416]}}]}